{"type":"FeatureCollection","features":[{"type":"Feature","properties":{},"geometry":{"type":"LineString","coordinates":[[99.988862,14.021771],[99.988825,14.021836],[99.988779,14.021904],[99.986757,14.021904],[99.985519,14.022021],[99.984634,14.02231],[99.983097,14.023044],[99.982203,14.023351],[99.981038,14.023541],[99.979147,14.023559],[99.979024,14.023173],[99.979003,14.020972],[99.977611,14.021021],[99.977628,14.023039],[99.977423,14.023567],[99.97603,14.023602],[99.975951,14.02104],[99.972174,14.021064],[99.972193,14.024781],[99.976043,14.02471],[99.976074,14.024603],[99.976,14.023736],[99.980965,14.023629],[99.981681,14.023594],[99.982514,14.023386],[99.98372,14.022839],[99.984852,14.022352],[99.985373,14.022189],[99.985871,14.022095],[99.987785,14.022032],[99.989248,14.02202],[99.990086,14.021871],[99.990062,14.021764],[99.988972,14.021919],[99.988953,14.021869],[99.988862,14.021771]]}}]}