{"type":"FeatureCollection","features":[{"type":"Feature","properties":{},"geometry":{"type":"LineString","coordinates":[[99.984003,14.026324],[99.984012,14.026511],[99.983487,14.026515],[99.982902,14.026546],[99.982889,14.026467],[99.982442,14.02645],[99.982384,14.026482],[99.98231,14.02662],[99.982181,14.026654],[99.980934,14.026644],[99.980783,14.026711],[99.980759,14.02675],[99.980737,14.026907],[99.980751,14.027423],[99.980416,14.027499],[99.980035,14.027496],[99.979996,14.027475],[99.979525,14.027655],[99.979335,14.027722],[99.97927,14.027772],[99.979418,14.027963],[99.979546,14.028178],[99.979622,14.028119],[99.979458,14.027864],[99.979193,14.027572],[99.978293,14.026735],[99.978037,14.027002],[99.977795,14.027212],[99.977567,14.027362],[99.976823,14.027635],[99.976443,14.027726],[99.97609,14.027759],[99.975126,14.0278],[99.975102,14.025809],[99.973812,14.025843],[99.973807,14.021106],[99.97386,14.021067],[99.977619,14.02101],[99.977627,14.021627],[99.975975,14.021664],[99.976028,14.023605],[99.975613,14.023596],[99.97562,14.023711],[99.976036,14.023713],[99.979188,14.023684],[99.979192,14.024408],[99.979169,14.02501],[99.979112,14.025413],[99.979022,14.025751],[99.978838,14.026119],[99.97876,14.026125],[99.978559,14.026461],[99.978359,14.026683],[99.978229,14.026811],[99.978869,14.027395],[99.979324,14.02783],[99.979546,14.028178],[99.979626,14.028117],[99.979467,14.027875],[99.979341,14.027723],[99.979599,14.027631],[99.979988,14.027474],[99.980039,14.027493],[99.980414,14.027499],[99.980621,14.027458],[99.980752,14.027421],[99.98074,14.026904],[99.980759,14.026748],[99.980791,14.026705],[99.980935,14.026642],[99.981556,14.026649],[99.982177,14.026653],[99.982299,14.026627],[99.982377,14.026499],[99.982438,14.026449],[99.98289,14.026469],[99.982903,14.026547],[99.98349,14.026515],[99.984011,14.026512],[99.984004,14.026325],[99.984004,14.026324]]}}]}